{
  "norad_id": 58162,
  "name": "STARLINK-30816",
  "history": [
    {
      "epoch": "2026-03-28T12:32:59.538048Z",
      "apogee_km": 476.08852026894965,
      "perigee_km": 474.39655792833673,
      "latitude_deg": -1.6851293939822609e-06,
      "longitude_deg": 117.88058284947228,
      "height_km": 475.9158624486415,
      "semi_major_axis_km": 6853.379539098642,
      "eccentricity": 0.00012344,
      "inclination_deg": 53.16,
      "raan_deg": 132.0708,
      "arg_perigee_deg": 74.5855,
      "mean_anomaly_deg": 285.5282,
      "mean_motion_rev_day": 15.301908
    }
  ]
}